[{"OBJECT_NAME":"STARLINK-4296","OBJECT_ID":"2022-076K","EPOCH":"2026-03-09T08:41:04.217568","MEAN_MOTION":15.08854856,"ECCENTRICITY":0.00015707,"INCLINATION":53.2164,"RA_OF_ASC_NODE":95.5914,"ARG_OF_PERICENTER":86.5737,"MEAN_ANOMALY":273.5435,"EPHEMERIS_TYPE":0,"CLASSIFICATION_TYPE":"U","NORAD_CAT_ID":52995,"ELEMENT_SET_NO":999,"REV_AT_EPOCH":20279,"BSTAR":0.00013322775,"MEAN_MOTION_DOT":1.834e-5,"MEAN_MOTION_DDOT":0},{"OBJECT_NAME":"ICEYE-X67","OBJECT_ID":"2025-248K","EPOCH":"2026-03-09T22:00:01.999584","MEAN_MOTION":15.09405994,"ECCENTRICITY":0.00063951,"INCLINATION":45.4045,"RA_OF_ASC_NODE":295.7576,"ARG_OF_PERICENTER":209.4534,"MEAN_ANOMALY":51.9892,"EPHEMERIS_TYPE":0,"CLASSIFICATION_TYPE":"U","NORAD_CAT_ID":66302,"ELEMENT_SET_NO":999,"REV_AT_EPOCH":578,"BSTAR":-0.000164009,"MEAN_MOTION_DOT":-2.917e-5,"MEAN_MOTION_DDOT":0}]
